STARLINK-37081          
1 68229U 26053Y   26097.16804579  .00117318  00000+0  77528-3 0  9999
2 68229  97.2843 332.8618 0001127  80.2079 279.9313 15.75231377  4559
STARLINK-37100          
1 68230U 26053Z   26097.20258034  .00056422  00000+0  29337-3 0  9998
2 68230  97.2855 332.9673 0001550  93.4680 266.6765 15.80817946  4563
STARLINK-37104          
1 68231U 26053AA  26097.20183080  .00077037  00000+0  39850-3 0  9993
2 68231  97.2855 332.9680 0001068  79.5703 280.5686 15.80864617  4561
STARLINK-37027          
1 68232U 26054A   26097.23546917  .00102454  00000+0  66365-3 0  9993
2 68232  53.1589 169.9817 0001087  96.6337 263.4807 15.75266768  3281
STARLINK-37132          
1 68233U 26054B   26097.20337405  .00332293  00000+0  16151-2 0  9994
2 68233  53.1574 169.7678 0001206  59.3224 300.7918 15.80980231  3285
STARLINK-37101          
1 68234U 26054C   26097.22671899  .00196874  00000+0  12545-2 0  9991
2 68234  53.1577 169.9227 0001562 100.3982 259.7214 15.75317081  3287
STARLINK-36963          
1 68235U 26054D   26097.23125768  .00177257  00000+0  11331-2 0  9998
2 68235  53.1588 169.9533 0001195 108.2073 251.9077 15.75305632  3280
STARLINK-37127          
1 68236U 26054E   26097.24033583  .00236961  00000+0  15015-2 0  9994
2 68236  53.1585 170.0137 0000924  58.1794 301.9316 15.75322972  3281
STARLINK-37095          
1 68237U 26054F   26097.23579502  .00215291  00000+0  13683-2 0  9992
2 68237  53.1590 169.9833 0001157  92.4675 267.6477 15.75320892  3281
STARLINK-37097          
1 68238U 26054G   26097.26332639 -.00835240  00000+0 -51229-2 0  9996
2 68238  53.1577 169.4282 0000640  63.1051 297.0037 15.78792234  3295
STARLINK-37096          
1 68239U 26054H   26097.25003472  .00009554  00000+0  66428-4 0  9994
2 68239  53.1587 169.5917 0000987  86.3623 150.9062 15.75236968  4503
STARLINK-37092          
1 68240U 26054J   26097.21731359  .00186660  00000+0  11947-2 0  9992
2 68240  53.1569 169.8599 0001154  73.9704 286.1443 15.75248280  3282
STARLINK-37094          
1 68241U 26054K   26097.19737252  .00214612  00000+0  10599-2 0  9999
2 68241  53.1579 169.7275 0001246  67.3212 292.7942 15.80958084  3280
STARLINK-36356          
1 68242U 26054L   26097.22184517  .00133735  00000+0  85972-3 0  9998
2 68242  53.1574 169.8891 0001152 112.0320 248.0823 15.75322543  3286
STARLINK-36345          
1 68243U 26054M   26097.23093069  .00168075  00000+0  10756-2 0  9993
2 68243  53.1585 169.9504 0001593  66.7817 293.3372 15.75310572  3287
STARLINK-36310          
1 68244U 26054N   26097.19437289  .00218177  00000+0  10771-2 0  9991
2 68244  53.1580 169.7077 0001513  74.2937 285.8253 15.80956760  3280
