[{"OBJECT_NAME":"STARLINK-37081","OBJECT_ID":"2026-053Y","EPOCH":"2026-04-07T04:01:59.156256","MEAN_MOTION":15.75231377,"ECCENTRICITY":0.00011274,"INCLINATION":97.2843,"RA_OF_ASC_NODE":332.8618,"ARG_OF_PERICENTER":80.2079,"MEAN_ANOMALY":279.9313,"EPHEMERIS_TYPE":0,"CLASSIFICATION_TYPE":"U","NORAD_CAT_ID":68229,"ELEMENT_SET_NO":999,"REV_AT_EPOCH":455,"BSTAR":0.0007752774,"MEAN_MOTION_DOT":0.00117318,"MEAN_MOTION_DDOT":0},{"OBJECT_NAME":"STARLINK-37100","OBJECT_ID":"2026-053Z","EPOCH":"2026-04-07T04:51:42.941376","MEAN_MOTION":15.80817946,"ECCENTRICITY":0.00015508,"INCLINATION":97.2855,"RA_OF_ASC_NODE":332.9673,"ARG_OF_PERICENTER":93.468,"MEAN_ANOMALY":266.6765,"EPHEMERIS_TYPE":0,"CLASSIFICATION_TYPE":"U","NORAD_CAT_ID":68230,"ELEMENT_SET_NO":999,"REV_AT_EPOCH":456,"BSTAR":0.00029336842,"MEAN_MOTION_DOT":0.00056422,"MEAN_MOTION_DDOT":0},{"OBJECT_NAME":"STARLINK-37104","OBJECT_ID":"2026-053AA","EPOCH":"2026-04-07T04:50:38.181120","MEAN_MOTION":15.80864617,"ECCENTRICITY":0.00010688,"INCLINATION":97.2855,"RA_OF_ASC_NODE":332.968,"ARG_OF_PERICENTER":79.5703,"MEAN_ANOMALY":280.5686,"EPHEMERIS_TYPE":0,"CLASSIFICATION_TYPE":"U","NORAD_CAT_ID":68231,"ELEMENT_SET_NO":999,"REV_AT_EPOCH":456,"BSTAR":0.00039850275,"MEAN_MOTION_DOT":0.00077037,"MEAN_MOTION_DDOT":0},{"OBJECT_NAME":"STARLINK-37027","OBJECT_ID":"2026-054A","EPOCH":"2026-04-07T05:39:04.536288","MEAN_MOTION":15.75266768,"ECCENTRICITY":0.00010872,"INCLINATION":53.1589,"RA_OF_ASC_NODE":169.9817,"ARG_OF_PERICENTER":96.6337,"MEAN_ANOMALY":263.4807,"EPHEMERIS_TYPE":0,"CLASSIFICATION_TYPE":"U","NORAD_CAT_ID":68232,"ELEMENT_SET_NO":999,"REV_AT_EPOCH":328,"BSTAR":0.00066365339,"MEAN_MOTION_DOT":0.00102454,"MEAN_MOTION_DDOT":0},{"OBJECT_NAME":"STARLINK-37132","OBJECT_ID":"2026-054B","EPOCH":"2026-04-07T04:52:51.517920","MEAN_MOTION":15.80980231,"ECCENTRICITY":0.00012064,"INCLINATION":53.1574,"RA_OF_ASC_NODE":169.7678,"ARG_OF_PERICENTER":59.3224,"MEAN_ANOMALY":300.7918,"EPHEMERIS_TYPE":0,"CLASSIFICATION_TYPE":"U","NORAD_CAT_ID":68233,"ELEMENT_SET_NO":999,"REV_AT_EPOCH":328,"BSTAR":0.0016151457,"MEAN_MOTION_DOT":0.00332293,"MEAN_MOTION_DDOT":0},{"OBJECT_NAME":"STARLINK-37101","OBJECT_ID":"2026-054C","EPOCH":"2026-04-07T05:26:28.520736","MEAN_MOTION":15.75317081,"ECCENTRICITY":0.00015628,"INCLINATION":53.1577,"RA_OF_ASC_NODE":169.9227,"ARG_OF_PERICENTER":100.3982,"MEAN_ANOMALY":259.7214,"EPHEMERIS_TYPE":0,"CLASSIFICATION_TYPE":"U","NORAD_CAT_ID":68234,"ELEMENT_SET_NO":999,"REV_AT_EPOCH":328,"BSTAR":0.0012545176,"MEAN_MOTION_DOT":0.00196874,"MEAN_MOTION_DDOT":0},{"OBJECT_NAME":"STARLINK-36963","OBJECT_ID":"2026-054D","EPOCH":"2026-04-07T05:33:00.663552","MEAN_MOTION":15.75305632,"ECCENTRICITY":0.00011955,"INCLINATION":53.1588,"RA_OF_ASC_NODE":169.9533,"ARG_OF_PERICENTER":108.2073,"MEAN_ANOMALY":251.9077,"EPHEMERIS_TYPE":0,"CLASSIFICATION_TYPE":"U","NORAD_CAT_ID":68235,"ELEMENT_SET_NO":999,"REV_AT_EPOCH":328,"BSTAR":0.0011331313,"MEAN_MOTION_DOT":0.00177257,"MEAN_MOTION_DDOT":0},{"OBJECT_NAME":"STARLINK-37127","OBJECT_ID":"2026-054E","EPOCH":"2026-04-07T05:46:05.015712","MEAN_MOTION":15.75322972,"ECCENTRICITY":9.241e-5,"INCLINATION":53.1585,"RA_OF_ASC_NODE":170.0137,"ARG_OF_PERICENTER":58.1794,"MEAN_ANOMALY":301.9316,"EPHEMERIS_TYPE":0,"CLASSIFICATION_TYPE":"U","NORAD_CAT_ID":68236,"ELEMENT_SET_NO":999,"REV_AT_EPOCH":328,"BSTAR":0.0015015459,"MEAN_MOTION_DOT":0.00236961,"MEAN_MOTION_DDOT":0},{"OBJECT_NAME":"STARLINK-37095","OBJECT_ID":"2026-054F","EPOCH":"2026-04-07T05:39:32.689728","MEAN_MOTION":15.75320892,"ECCENTRICITY":0.00011576,"INCLINATION":53.159,"RA_OF_ASC_NODE":169.9833,"ARG_OF_PERICENTER":92.4675,"MEAN_ANOMALY":267.6477,"EPHEMERIS_TYPE":0,"CLASSIFICATION_TYPE":"U","NORAD_CAT_ID":68237,"ELEMENT_SET_NO":999,"REV_AT_EPOCH":328,"BSTAR":0.0013682663,"MEAN_MOTION_DOT":0.00215291,"MEAN_MOTION_DDOT":0},{"OBJECT_NAME":"STARLINK-37097","OBJECT_ID":"2026-054G","EPOCH":"2026-04-07T06:19:11.400096","MEAN_MOTION":15.78792234,"ECCENTRICITY":6.405e-5,"INCLINATION":53.1577,"RA_OF_ASC_NODE":169.4282,"ARG_OF_PERICENTER":63.1051,"MEAN_ANOMALY":297.0037,"EPHEMERIS_TYPE":0,"CLASSIFICATION_TYPE":"U","NORAD_CAT_ID":68238,"ELEMENT_SET_NO":999,"REV_AT_EPOCH":329,"BSTAR":-0.0051229272,"MEAN_MOTION_DOT":-0.0083524,"MEAN_MOTION_DDOT":0},{"OBJECT_NAME":"STARLINK-37096","OBJECT_ID":"2026-054H","EPOCH":"2026-04-07T06:00:02.999808","MEAN_MOTION":15.75236968,"ECCENTRICITY":9.871e-5,"INCLINATION":53.1587,"RA_OF_ASC_NODE":169.5917,"ARG_OF_PERICENTER":86.3623,"MEAN_ANOMALY":150.9062,"EPHEMERIS_TYPE":0,"CLASSIFICATION_TYPE":"U","NORAD_CAT_ID":68239,"ELEMENT_SET_NO":999,"REV_AT_EPOCH":450,"BSTAR":6.6427897e-5,"MEAN_MOTION_DOT":9.554e-5,"MEAN_MOTION_DDOT":0},{"OBJECT_NAME":"STARLINK-37092","OBJECT_ID":"2026-054J","EPOCH":"2026-04-07T05:12:55.894176","MEAN_MOTION":15.7524828,"ECCENTRICITY":0.00011547,"INCLINATION":53.1569,"RA_OF_ASC_NODE":169.8599,"ARG_OF_PERICENTER":73.9704,"MEAN_ANOMALY":286.1443,"EPHEMERIS_TYPE":0,"CLASSIFICATION_TYPE":"U","NORAD_CAT_ID":68240,"ELEMENT_SET_NO":999,"REV_AT_EPOCH":328,"BSTAR":0.001194669,"MEAN_MOTION_DOT":0.0018666,"MEAN_MOTION_DDOT":0},{"OBJECT_NAME":"STARLINK-37094","OBJECT_ID":"2026-054K","EPOCH":"2026-04-07T04:44:12.985728","MEAN_MOTION":15.80958084,"ECCENTRICITY":0.00012469,"INCLINATION":53.1579,"RA_OF_ASC_NODE":169.7275,"ARG_OF_PERICENTER":67.3212,"MEAN_ANOMALY":292.7942,"EPHEMERIS_TYPE":0,"CLASSIFICATION_TYPE":"U","NORAD_CAT_ID":68241,"ELEMENT_SET_NO":999,"REV_AT_EPOCH":328,"BSTAR":0.0010599024,"MEAN_MOTION_DOT":0.00214612,"MEAN_MOTION_DDOT":0},{"OBJECT_NAME":"STARLINK-36356","OBJECT_ID":"2026-054L","EPOCH":"2026-04-07T05:19:27.422688","MEAN_MOTION":15.75322543,"ECCENTRICITY":0.00011522,"INCLINATION":53.1574,"RA_OF_ASC_NODE":169.8891,"ARG_OF_PERICENTER":112.032,"MEAN_ANOMALY":248.0823,"EPHEMERIS_TYPE":0,"CLASSIFICATION_TYPE":"U","NORAD_CAT_ID":68242,"ELEMENT_SET_NO":999,"REV_AT_EPOCH":328,"BSTAR":0.00085971809,"MEAN_MOTION_DOT":0.00133735,"MEAN_MOTION_DDOT":0},{"OBJECT_NAME":"STARLINK-36345","OBJECT_ID":"2026-054M","EPOCH":"2026-04-07T05:32:32.411616","MEAN_MOTION":15.75310572,"ECCENTRICITY":0.00015939,"INCLINATION":53.1585,"RA_OF_ASC_NODE":169.9504,"ARG_OF_PERICENTER":66.7817,"MEAN_ANOMALY":293.3372,"EPHEMERIS_TYPE":0,"CLASSIFICATION_TYPE":"U","NORAD_CAT_ID":68243,"ELEMENT_SET_NO":999,"REV_AT_EPOCH":328,"BSTAR":0.0010755773,"MEAN_MOTION_DOT":0.00168075,"MEAN_MOTION_DDOT":0},{"OBJECT_NAME":"STARLINK-36310","OBJECT_ID":"2026-054N","EPOCH":"2026-04-07T04:39:53.817696","MEAN_MOTION":15.8095676,"ECCENTRICITY":0.00015139,"INCLINATION":53.158,"RA_OF_ASC_NODE":169.7077,"ARG_OF_PERICENTER":74.2937,"MEAN_ANOMALY":285.8253,"EPHEMERIS_TYPE":0,"CLASSIFICATION_TYPE":"U","NORAD_CAT_ID":68244,"ELEMENT_SET_NO":999,"REV_AT_EPOCH":328,"BSTAR":0.001077068,"MEAN_MOTION_DOT":0.00218177,"MEAN_MOTION_DDOT":0}]
